stationNaptan,stationName,stopType,lat,lon,line,wifi,zone,address
940GZZLUBST,Baker Street Underground Station,NaptanMetroStation,51.522883,-0.15713,bakerloo,yes,1,"Baker Street Station Marylebone Rd,London,NW1"
940GZZLUCHX,Charing Cross Underground Station,NaptanMetroStation,51.50741,-0.127277,bakerloo,yes,1,"Charing Cross Underground Station,London Underground Ltd.,Trafalgar Square,London,WC2N 5DR"
940GZZLUEAC,Elephant & Castle Underground Station,NaptanMetroStation,51.494536,-0.100606,bakerloo,yes,1+2,"Elephant & Castle Underground Station,London Underground Ltd.,London Rd,London,SE1 6LW"
940GZZLUEMB,Embankment Underground Station,NaptanMetroStation,51.507058,-0.122666,bakerloo,yes,1,"Embankment Station,London Underground Ltd.,Villiers St,London,WC2N 6NS"
940GZZLUERB,Edgware Road (Bakerloo) Underground Station,NaptanMetroStation,51.520299,-0.17015,bakerloo,yes,1,"Edgware Road Bakerloo,London Underground Ltd.,Edgware Road,London,W2 1DY"
940GZZLUHAW,Harrow & Wealdstone Underground Station,NaptanMetroStation,51.592268,-0.335217,bakerloo,yes,5,"Harrow & Wealdstone,London Overground Ltd.,High Street,Harrow,HA3 5BP"
940GZZLUHSN,Harlesden Underground Station,NaptanMetroStation,51.53631,-0.257883,bakerloo,yes,3,"Harlesden,London Overground Ltd,Acton Lane,LONDON,NW10 7AA"
940GZZLUKEN,Kenton Underground Station,NaptanMetroStation,51.581756,-0.31691,bakerloo,yes,4,"Kenton,London Overground Ltd.,Kenton Road,Harrow,HA3 0AZ"
940GZZLUKPK,Kilburn Park Underground Station,NaptanMetroStation,51.534979,-0.194232,bakerloo,yes,2,"Kilburn Park Station,London Underground Ltd.,Cambridge Avenue,London,NW6 5AD"
940GZZLUKSL,Kensal Green Underground Station,NaptanMetroStation,51.530539,-0.225016,bakerloo,no,2,"Kensal Green,London Overground Ltd.,College Road,Kensal Green,HA10 5JT"
940GZZLULBN,Lambeth North Underground Station,NaptanMetroStation,51.498808,-0.112315,bakerloo,yes,1,"Lambeth North Station,London Underground Ltd.,110 Westminster Bridge Rd,London,SE1 7XG"
940GZZLUMVL,Maida Vale Underground Station,NaptanMetroStation,51.529777,-0.185758,bakerloo,yes,2,"Maida Vale Station,London Underground Ltd.,Elgin Avenue,London,W9 1JS"
940GZZLUMYB,Marylebone Underground Station,NaptanMetroStation,51.522322,-0.163207,bakerloo,yes,1,"Marylebone Underground Station,London Underground Ltd.,Harewood Row,London,NW1 6JP"
940GZZLUNWY,North Wembley Underground Station,NaptanMetroStation,51.562551,-0.304,bakerloo,no,4,"North Wembley,London Overground Ltd.,East Lane,Wembley,HA9 7NT"
940GZZLUOXC,Oxford Circus Underground Station,NaptanMetroStation,51.515224,-0.141903,bakerloo,yes,1,"Oxford Circus Station,London Underground Ltd.,Oxford St,London,W1B 3AG"
940GZZLUPAC,Paddington Underground Station,NaptanMetroStation,51.516581,-0.175689,bakerloo,yes,1,"Paddington Underground Stations,London Underground Ltd.,Praed St,London,W2"
940GZZLUPCC,Piccadilly Circus Underground Station,NaptanMetroStation,51.51005,-0.133798,bakerloo,yes,1,"Piccadilly Circus Station,London Underground Ltd.,Piccadilly Circus,London,W1J 9HP"
940GZZLUQPS,Queen's Park Underground Station,NaptanMetroStation,51.534158,-0.204574,bakerloo,yes,2,"Queen's Park,London Overground Ltd.,Salusbury Road,London,NW6 6NL"
940GZZLURGP,Regent's Park Underground Station,NaptanMetroStation,51.523344,-0.146444,bakerloo,yes,1,"Regent's Park Station,London Underground Ltd.,Marylebone Rd,London,NW1 5HA"
940GZZLUSGP,Stonebridge Park Underground Station,NaptanMetroStation,51.543959,-0.275892,bakerloo,yes,3,"Stonebridge Park,London Overground Ltd.,North Circular Road,London,NW10 0RL"
940GZZLUSKT,South Kenton Underground Station,NaptanMetroStation,51.570232,-0.308433,bakerloo,yes,4,"South Kenton,London Overground Ltd.,Windermere Road,Preston,HA9 8RD"
940GZZLUWJN,Willesden Junction Underground Station,NaptanMetroStation,51.532259,-0.244283,bakerloo,yes,2+3,"Willesden Junction,London Overground Ltd.,Station Approach,Harlesden,NW10 4UY"
940GZZLUWKA,Warwick Avenue Underground Station,NaptanMetroStation,51.523263,-0.183783,bakerloo,yes,2,"Warwick Avenue Station,London Underground Ltd.,Warwick Avenue,London,W9 2PT"
940GZZLUWLO,Waterloo Underground Station,NaptanMetroStation,51.503299,-0.11478,bakerloo,yes,1,"Waterloo Underground Station,London Underground Ltd.,York Rd,London,SE1 7ND"
940GZZLUWYC,Wembley Central Underground Station,NaptanMetroStation,51.552304,-0.296852,bakerloo,yes,4,"Wembley Central,London Overground Ltd.,High Road,Wembley,HA9 7AJ"
940GZZLUBKE,Barkingside Underground Station,NaptanMetroStation,51.585689,0.088585,central,yes,4,"Barkingside Station,London Underground Ltd.,Stn Rd,Barkingside,Milford,Essex,IG6 1NB"
940GZZLUBKH,Buckhurst Hill Underground Station,NaptanMetroStation,51.626605,0.046757,central,yes,5,"Buckhurst Hill Station,London Underground Ltd.,Victoria Rd,Buckhurst Hill,Essex,IG9 5ET"
940GZZLUBLG,Bethnal Green Underground Station,NaptanMetroStation,51.527222,-0.055506,central,yes,2,"Bethnal Green Underground Station,London Underground Ltd.,Cambridge Heath Rd,London,E2 0ET"
940GZZLUBND,Bond Street Underground Station,NaptanMetroStation,51.514304,-0.149723,central,no,1,"Bond Street Station,London Underground Ltd.,Oxford St,London,W1R 1FE"
940GZZLUBNK,Bank Underground Station,NaptanMetroStation,51.513356,-0.088899,central,yes,1,"Bank/Monument Complex,London Underground Ltd.,Princes St,London,EC3V 3LA"
940GZZLUCHL,Chancery Lane Underground Station,NaptanMetroStation,51.518247,-0.111583,central,yes,1,"Chancery Lane Station,London Underground Ltd.,High Holborn,London,WC1V 6DR"
940GZZLUCWL,Chigwell Underground Station,NaptanMetroStation,51.617916,0.075041,central,yes,4,"Chigwell Station,London Underground Ltd.,Station Rd,Chigwell,Essex,IG7 6NT"
940GZZLUDBN,Debden Underground Station,NaptanMetroStation,51.645386,0.083782,central,yes,6,"Debden Station,London Underground Ltd.,Chigwell Lane,Loughton,Essex,IG10 3TG"
940GZZLUEAN,East Acton Underground Station,NaptanMetroStation,51.516612,-0.247248,central,yes,2,"East Acton Station,London Underground Ltd.,Erconwald St,London,W12 0BP"
940GZZLUEBY,Ealing Broadway Underground Station,NaptanMetroStation,51.515017,-0.301457,central,yes,3,"Ealing Broadway Station,The Broadway,London,W5 2NU"
940GZZLUEPG,Epping Underground Station,NaptanMetroStation,51.69368,0.113767,central,yes,6,"Epping Station,London Underground Ltd.,Station Rd,Epping,Essex,CM16 4HW"
940GZZLUFLP,Fairlop Underground Station,NaptanMetroStation,51.595618,0.091004,central,yes,4,"Fairlop Station,London Underground Ltd.,Forest Rd,Ilford,Essex,IG6 3HD"
940GZZLUGFD,Greenford Underground Station,NaptanMetroStation,51.542424,-0.34605,central,yes,4,"Greenford Station,London Underground Ltd.,Oldfield Lane,Greenford,Middx,UB6 8PX"
940GZZLUGGH,Grange Hill Underground Station,NaptanMetroStation,51.613378,0.092066,central,yes,4,"Grange Hill Station,London Underground Ltd.,Manor Rd,Chigwell,Essex IG7 5QB"
940GZZLUGTH,Gants Hill Underground Station,NaptanMetroStation,51.576544,0.066185,central,yes,4,"Gants Hill Station,London Underground Ltd.,Cranbrook Rd,Ilford,Essex,IG2 6UD"
940GZZLUHBN,Holborn Underground Station,NaptanMetroStation,51.51758,-0.120475,central,yes,1,"Holborn Station,London Underground Ltd.,Kingsway,London,WC2B 6AA"
940GZZLUHGR,Hanger Lane Underground Station,NaptanMetroStation,51.530177,-0.292704,central,no,3,"Hanger Lane Station,London Underground Ltd.,Hanger Lane,London,W5 1DL"
940GZZLUHLT,Hainault Underground Station,NaptanMetroStation,51.603659,0.093482,central,yes,4,"Hainault Station,London Underground Ltd.,New North Rd,Ilford,Essex,IG6 3BD"
940GZZLUHPK,Holland Park Underground Station,NaptanMetroStation,51.507143,-0.205679,central,yes,2,"Holland Park Station,London Underground Ltd.,Holland Park Avenue,London,W11 3RB"
940GZZLULGN,Loughton Underground Station,NaptanMetroStation,51.641443,0.055476,central,yes,6,"Loughton Station,London Underground Ltd.,Old Station Rd,Roding Rd,Loughton,Essex,IG10 4PD"
940GZZLULGT,Lancaster Gate Underground Station,NaptanMetroStation,51.511723,-0.175494,central,yes,1,"Lancaster Gate Station,London Underground Ltd.,Bayswater Rd,London,W2"
940GZZLULVT,Liverpool Street Underground Station,NaptanMetroStation,51.517372,-0.083182,central,yes,1,"Liverpool Street Underground Station Central,London Underground Ltd.,Liverpool Street,London,EC2M 7PP"
940GZZLULYN,Leyton Underground Station,NaptanMetroStation,51.556589,-0.005523,central,yes,3,"Leyton Underground Station,London Underground Ltd.,High Rd,Leyton,London,E10 5PS"
940GZZLULYS,Leytonstone Underground Station,NaptanMetroStation,51.568324,0.008194,central,yes,3+4,"Leytonstone Station,London Underground Ltd.,Church Lane,London,E11 1HE"
940GZZLUMBA,Marble Arch Underground Station,NaptanMetroStation,51.513424,-0.158953,central,yes,1,"Marble Arch Station,London Underground Ltd.,Oxford St,London,W1C 1CX"
940GZZLUMED,Mile End Underground Station,NaptanMetroStation,51.525122,-0.03364,central,yes,2,"Mile End Station,London Underground Ltd.,Mile End Rd,London,E3 4DH"
940GZZLUNAN,North Acton Underground Station,NaptanMetroStation,51.523524,-0.259755,central,yes,2+3,"North Acton Station,London Underground Ltd.,Victoria Rd,London,W3 6UP"
940GZZLUNBP,Newbury Park Underground Station,NaptanMetroStation,51.575726,0.090004,central,yes,4,"Newbury Park Station,London Underground Ltd.,Eastern Avenue,Ilford,Essex,IG2 7RN"
940GZZLUNHG,Notting Hill Gate Underground Station,NaptanMetroStation,51.509128,-0.196104,central,yes,1+2,"Notting Hill Gate Station,London Underground Ltd.,Notting Hill Gate,London,W11 3HT"
940GZZLUNHT,Northolt Underground Station,NaptanMetroStation,51.548236,-0.368699,central,yes,5,"Northolt Underground Station,London Underground Ltd.,Mandeville Rd,Northolt,Middx,UB5 4AA"
940GZZLUOXC,Oxford Circus Underground Station,NaptanMetroStation,51.515224,-0.141903,central,yes,1,"Oxford Circus Station,London Underground Ltd.,Oxford St,London,W1B 3AG"
940GZZLUPVL,Perivale Underground Station,NaptanMetroStation,51.536717,-0.323446,central,yes,4,"Perivale Station,London Underground Ltd.,Horsenden Lane,Greenford,Middx"
940GZZLUQWY,Queensway Underground Station,NaptanMetroStation,51.510312,-0.187152,central,yes,1,"Queensway Station,London Underground Ltd.,Bayswater Rd,London,W2 4SS"
940GZZLURBG,Redbridge Underground Station,NaptanMetroStation,51.576243,0.04536,central,yes,4,"Redbridge Station,London Underground Ltd.,Eastern Avenue,Ilford,Essex,IG4 5DQ"
940GZZLURSG,Ruislip Gardens Underground Station,NaptanMetroStation,51.560736,-0.41071,central,no,5,"Ruislip Gardens Station,London Underground Ltd.,West End Rd,Ruislip,Middx,HA4 6NF"
940GZZLURVY,Roding Valley Underground Station,NaptanMetroStation,51.617199,0.043647,central,yes,4,"Roding Valley Station,London Underground Ltd.,Station Way,Buckhurst Hill,Essex,IG9 6LN"
940GZZLUSBC,Shepherd's Bush (Central) Underground Station,NaptanMetroStation,51.504376,-0.218813,central,yes,2,"Shepherd's Bush Central,London Underground Ltd.,Uxbridge Road,London,W12 8ND"
940GZZLUSNB,Snaresbrook Underground Station,NaptanMetroStation,51.580678,0.02144,central,yes,4,"Snaresbrook Station,London Underground Ltd.,Station Approach,London,E11 1QE"
940GZZLUSPU,St. Paul's Underground Station,NaptanMetroStation,51.514936,-0.097567,central,yes,1,"St. Paul's,London Underground Ltd.,Cheapside,London,EC1"
940GZZLUSRP,South Ruislip Underground Station,NaptanMetroStation,51.556853,-0.398915,central,yes,5,"South Ruislip Station,London Underground Ltd.,Station Approach,Ruislip,Middx,HA4 6TP"
940GZZLUSTD,Stratford Underground Station,NaptanMetroStation,51.541806,-0.003458,central,yes,2/3,"Stratford Station BR Station St,London,E15 1DE"
940GZZLUSWF,South Woodford Underground Station,NaptanMetroStation,51.591907,0.027338,central,yes,4,"South Woodford Station,London Underground Ltd.,George Lane,London,E18 1JJ"
940GZZLUTCR,Tottenham Court Road Underground Station,NaptanMetroStation,51.516426,-0.13041,central,no,1,"Tottenham Court Road Station,London Underground Ltd.,Oxford St,London,W1"
940GZZLUTHB,Theydon Bois Underground Station,NaptanMetroStation,51.671759,0.103085,central,yes,6,"Theydon Bois Station,London Underground Ltd.,Coppice Row,Theydon Bois,Essex,CM16 7EU"
940GZZLUWCY,White City Underground Station,NaptanMetroStation,51.511959,-0.224297,central,yes,2,"White City Station,London Underground Ltd.,Wood Lane,London,W12 7RH"
940GZZLUWOF,Woodford Underground Station,NaptanMetroStation,51.606899,0.03397,central,yes,4,"Woodford Station,London Underground Ltd.,Snakes Lane,Woodford Green,Essex"
940GZZLUWRP,West Ruislip Underground Station,NaptanMetroStation,51.569688,-0.437886,central,yes,6,"West Ruislip Station,London Underground Ltd.,Ickenham Rd,West Ruislip,Middlesex"
940GZZLUWSD,Wanstead Underground Station,NaptanMetroStation,51.575501,0.028527,central,yes,4,"Wanstead Underground Station,London Underground Ltd.,The Green,London,E11 2NT"
940GZZLUWTA,West Acton Underground Station,NaptanMetroStation,51.518001,-0.28098,central,yes,3,"West Acton Station,London Underground Ltd.,Princes Gardens,London,W3 0LG"
940GZZLUACT,Acton Town Underground Station,NaptanMetroStation,51.503057,-0.280462,circle,yes,3,"Acton Town Station,London Underground Ltd.,Gunnersbury Lane,London,W3 8HN"
940GZZLUALD,Aldgate Underground Station,NaptanMetroStation,51.514246,-0.075689,circle,yes,1,"Aldgate Station,London Underground Ltd.,Aldgate High St,London,EC3N 1AH"
940GZZLUBBN,Barbican Underground Station,NaptanMetroStation,51.520275,-0.097993,circle,yes,1,"Barbican Station,London Underground Ltd.,Aldersgate St,London,EC1A 4JA"
940GZZLUBKF,Blackfriars Underground Station,NaptanMetroStation,51.511581,-0.103659,circle,yes,1,"Blackfriars Station,London Underground Ltd.,Blackfriars Road,London,EC4R 2BB"
940GZZLUBSC,Barons Court Underground Station,NaptanMetroStation,51.490311,-0.213427,circle,yes,2,"Barons Court Station,London Underground Ltd.,Pallister Rd,London,W14"
940GZZLUBST,Baker Street Underground Station,NaptanMetroStation,51.522883,-0.15713,circle,yes,1,"Baker Street Station Marylebone Rd,London,NW1"
940GZZLUBWT,Bayswater Underground Station,NaptanMetroStation,51.512284,-0.187938,circle,yes,1,"Bayswater Station,London Underground Ltd.,Queensway,London,W2 4RH"
940GZZLUCST,Cannon Street Underground Station,NaptanMetroStation,51.51151,-0.090432,circle,yes,1,"Cannon Street Underground Station,London Underground Ltd.,Cannon St,London,EC4N 6AP"
940GZZLUCWP,Chiswick Park Underground Station,NaptanMetroStation,51.494627,-0.267972,circle,yes,3,"Chiswick Park Station,London Underground Ltd.,Bollo Lane,London,W4 5NE"
940GZZLUEBY,Ealing Broadway Underground Station,NaptanMetroStation,51.515017,-0.301457,circle,yes,3,"Ealing Broadway Station,The Broadway,London,W5 2NU"
940GZZLUECM,Ealing Common Underground Station,NaptanMetroStation,51.51014,-0.288265,circle,yes,3,"Ealing Common Station,London Underground Ltd.,Uxbridge Rd,London,W5 3LD"
940GZZLUECT,Earl's Court Underground Station,NaptanMetroStation,51.492063,-0.193378,circle,yes,1+2,"Earl's Court Station,London Underground Ltd.,Earl's Court Rd,London,SW5 9QA"
940GZZLUEMB,Embankment Underground Station,NaptanMetroStation,51.507058,-0.122666,circle,yes,1,"Embankment Station,London Underground Ltd.,Villiers St,London,WC2N 6NS"
940GZZLUERC,Edgware Road (Circle Line) Underground Station,NaptanMetroStation,51.519858,-0.167832,circle,yes,1,"Edgware Road Circle,London Underground Ltd.,Chapel Street,London,NW1 5DH"
940GZZLUESQ,Euston Square Underground Station,NaptanMetroStation,51.525604,-0.135829,circle,yes,1,"Euston Square Station,London Underground Ltd.,Euston Rd,London,NW1 2BN"
940GZZLUFCN,Farringdon Underground Station,NaptanMetroStation,51.520252,-0.104913,circle,no,1,"Farringdon Station,London Underground Ltd.,Cowcross St,London,EC1M 6BY"
940GZZLUGHK,Goldhawk Road Underground Station,NaptanMetroStation,51.502005,-0.226715,circle,yes,2,"Goldhawk Road Station,London Underground Ltd.,Goldhawk Rd,London,W12 8EG"
940GZZLUGPS,Great Portland Street Underground Station,NaptanMetroStation,51.52384,-0.144262,circle,yes,1,"Great Portland Street Station,London Underground Ltd.,Euston Rd,London,NW1"
940GZZLUGTR,Gloucester Road Underground Station,NaptanMetroStation,51.494316,-0.182658,circle,yes,1,"Gloucester Road Station,London Underground Ltd.,Gloucester Rd,London,SW7 4SF"
940GZZLUHSC,Hammersmith (H&C Line) Underground Station,NaptanMetroStation,51.493383,-0.225033,circle,no,2,"Hammersmith (H & C),London Underground Ltd.,Beadon Road,London,W6 7AA"
940GZZLUHSD,Hammersmith (Dist&Picc Line) Underground Station,NaptanMetroStation,51.4923,-0.22362,circle,yes,2,"Hammersmith (D & P),London Underground Ltd.,Hammersmith Broadway,London,W6 8AB"
940GZZLUHSK,High Street Kensington Underground Station,NaptanMetroStation,51.501055,-0.192792,circle,yes,1,"High Street Kensington Station,London Underground Ltd.,Kensington High St,London,W8 5SA"
940GZZLUKSX,King's Cross St. Pancras Underground Station,NaptanMetroStation,51.530663,-0.123194,circle,yes,1,"King's Cross St. Pancras,London Underground Ltd.,Euston Road,London,N1 9AL"
940GZZLULAD,Ladbroke Grove Underground Station,NaptanMetroStation,51.517449,-0.210391,circle,yes,2,"Ladbroke Grove Station,London Underground Ltd.,Ladbroke Grove,London,W10 6HJ"
940GZZLULRD,Latimer Road Underground Station,NaptanMetroStation,51.513389,-0.217799,circle,yes,2,"Latimer Road Station,London Underground Ltd.,Bramley Rd,London,W10 6SZ"
940GZZLULVT,Liverpool Street Underground Station,NaptanMetroStation,51.517372,-0.083182,circle,yes,1,"Liverpool Street Underground Station Central,London Underground Ltd.,Liverpool Street,London,EC2M 7PP"
940GZZLUMGT,Moorgate Underground Station,NaptanMetroStation,51.518176,-0.088322,circle,no,1,"Moorgate Station,London Underground Ltd.,Moorfields,London,EC2Y 9AE"
940GZZLUMMT,Monument Underground Station,NaptanMetroStation,51.5107,-0.085969,circle,yes,1,"Monument Station,London Underground Ltd.,King William St,London,EC4R 9AA"
940GZZLUMSH,Mansion House Underground Station,NaptanMetroStation,51.512117,-0.094009,circle,yes,1,"Mansion House Station,London Underground Ltd.,38 Cannon St,London,EC4N 6JD"
940GZZLUNHG,Notting Hill Gate Underground Station,NaptanMetroStation,51.509128,-0.196104,circle,yes,1+2,"Notting Hill Gate Station,London Underground Ltd.,Notting Hill Gate,London,W11 3HT"
940GZZLUPAC,Paddington Underground Station,NaptanMetroStation,51.516581,-0.175689,circle,yes,1,"Paddington Underground Stations,London Underground Ltd.,Praed St,London,W2"
940GZZLUPAH,Paddington (H&C Line)-Underground,NaptanMetroStation,51.518187,-0.178306,circle,yes,1,"Ravenscourt Park Station,London Underground Ltd.,Ravenscourt Rd,London,W6 0UG"
940GZZLURVP,Ravenscourt Park Underground Station,NaptanMetroStation,51.494122,-0.235881,circle,yes,2,"Royal Oak Station,London Underground Ltd.,Lord Hills Bridge,London,W2 6ET"
940GZZLURYO,Royal Oak Underground Station,NaptanMetroStation,51.519113,-0.188748,circle,yes,2,"Shepherd's Bush Market,London Underground Ltd.,Uxbridge Road,London,W12 7JD"
940GZZLUSBM,Shepherd's Bush Market Underground Station,NaptanMetroStation,51.505579,-0.226375,circle,yes,2,"Stamford Brook Station,London Underground Ltd.,Goldhawk Rd,London,W6"
940GZZLUSFB,Stamford Brook Underground Station,NaptanMetroStation,51.494917,-0.245704,circle,yes,2,"St. James's Park,London Underground Ltd.,Petty France,London,SW1H 0BD"
940GZZLUSJP,St. James's Park Underground Station,NaptanMetroStation,51.499544,-0.133608,circle,yes,1,"South Kensington Station,London Underground Ltd.,Pelham St,London,SW7 2NB"
940GZZLUSKS,South Kensington Underground Station,NaptanMetroStation,51.494094,-0.174138,circle,yes,1,"Sloane Square Station,London Underground Ltd.,Sloane Square,London,SW1W 8BB"
940GZZLUSSQ,Sloane Square Underground Station,NaptanMetroStation,51.49227,-0.156377,circle,yes,1,"Temple Station,London Underground Ltd.,Victoria Embankment,London,WC2R 2PH"
940GZZLUTMP,Temple Underground Station,NaptanMetroStation,51.511006,-0.11426,circle,yes,1,"Turnham Green Station,London Underground Ltd.,Turnham Green Terrace,London,W4 1LR"
940GZZLUTNG,Turnham Green Underground Station,NaptanMetroStation,51.495148,-0.254555,circle,yes,2,"Tower Hill Station,London Underground Ltd.,Trinity Square,London,EC3N 4DJ"
940GZZLUTWH,Tower Hill Underground Station,NaptanMetroStation,51.509971,-0.076546,circle,yes,1,"Victoria Underground Station,London Underground Ltd.,Victoria St,London,SW1E 5ND"
940GZZLUVIC,Victoria Underground Station,NaptanMetroStation,51.496359,-0.143102,circle,yes,1,"West Kensington Station,London Underground Ltd.,North End Rd,London,W14 9NL"
940GZZLUWKN,West Kensington Underground Station,NaptanMetroStation,51.490459,-0.206636,circle,yes,2,"Wood Lane Station,London Underground Ltd.,Wood Lane,London,"
940GZZLUWLA,Wood Lane Underground Station,NaptanMetroStation,51.509669,-0.22453,circle,yes,2,"Westminster Station,London Underground Ltd.,Bridge St,London,SW1A 2JR"
940GZZLUWSM,Westminster Underground Station,NaptanMetroStation,51.50132,-0.124861,circle,yes,1,"Westbourne Park Station,London Underground Ltd.,Western Rd,London,W11 1AB"
940GZZLUWSP,Westbourne Park Underground Station,NaptanMetroStation,51.52111,-0.201065,circle,,2,
940GZZLUACT,Acton Town Underground Station,NaptanMetroStation,51.503057,-0.280462,district,yes,3,"Acton Town Station,London Underground Ltd.,Gunnersbury Lane,London,W3 8HN"
940GZZLUADE,Aldgate East Underground Station,NaptanMetroStation,51.515037,-0.072384,district,yes,1,"Aldgate East Station,London Underground Ltd.,Whitechapel High St,London,E1 7PT"
940GZZLUBBB,Bromley-by-Bow Underground Station,NaptanMetroStation,51.524839,-0.011538,district,yes,2+3,"Bromley-By-Bow,London Underground Ltd.,Blackwell Tunnel Northern Approach,London,E3 3JJ"
940GZZLUBEC,Becontree Underground Station,NaptanMetroStation,51.540331,0.127016,district,yes,5,"Becontree Station,London Underground Ltd.,Gale St,Dagenham,Essex,RM9 4TP"
940GZZLUBKF,Blackfriars Underground Station,NaptanMetroStation,51.511581,-0.103659,district,yes,1,"Blackfriars Station,London Underground Ltd.,Blackfriars Road,London,EC4R 2BB"
940GZZLUBKG,Barking Underground Station,NaptanMetroStation,51.539321,0.081053,district,yes,4,"Barking Station BR Station Parade,Longbridge Rd,Barking,Essex,IG11 8TU"
940GZZLUBSC,Barons Court Underground Station,NaptanMetroStation,51.490311,-0.213427,district,yes,2,"Barons Court Station,London Underground Ltd.,Pallister Rd,London,W14"
940GZZLUBWR,Bow Road Underground Station,NaptanMetroStation,51.52694,-0.025128,district,no,2,"Bow Road Station,London Underground Ltd.,Bow Road,London,E3 4DH"
940GZZLUBWT,Bayswater Underground Station,NaptanMetroStation,51.512284,-0.187938,district,yes,1,"Bayswater Station,London Underground Ltd.,Queensway,London,W2 4RH"
940GZZLUCST,Cannon Street Underground Station,NaptanMetroStation,51.51151,-0.090432,district,yes,1,"Cannon Street Underground Station,London Underground Ltd.,Cannon St,London,EC4N 6AP"
940GZZLUCWP,Chiswick Park Underground Station,NaptanMetroStation,51.494627,-0.267972,district,yes,3,"Chiswick Park Station,London Underground Ltd.,Bollo Lane,London,W4 5NE"
940GZZLUDGE,Dagenham East Underground Station,NaptanMetroStation,51.544096,0.166017,district,yes,5,"Dagenham East Station,London Underground Ltd.,North Rainham Rd,Dagenham,Essex,RM10 8AA"
940GZZLUDGY,Dagenham Heathway Underground Station,NaptanMetroStation,51.541639,0.147527,district,yes,5,"Dagenham Heathway Station,London Underground Ltd.,Heathway,Dagenham,Essex,RM9 5AN"
940GZZLUEBY,Ealing Broadway Underground Station,NaptanMetroStation,51.515017,-0.301457,district,yes,3,"Ealing Broadway Station,The Broadway,London,W5 2NU"
940GZZLUECM,Ealing Common Underground Station,NaptanMetroStation,51.51014,-0.288265,district,yes,3,"Ealing Common Station,London Underground Ltd.,Uxbridge Rd,London,W5 3LD"
940GZZLUECT,Earl's Court Underground Station,NaptanMetroStation,51.492063,-0.193378,district,yes,1+2,"Earl's Court Station,London Underground Ltd.,Earl's Court Rd,London,SW5 9QA"
940GZZLUEHM,East Ham Underground Station,NaptanMetroStation,51.538948,0.051186,district,yes,3+4,"East Ham Station,London Underground Ltd.,High Street North,London,E6 2JA"
940GZZLUEMB,Embankment Underground Station,NaptanMetroStation,51.507058,-0.122666,district,yes,1,"Embankment Station,London Underground Ltd.,Villiers St,London,WC2N 6NS"
940GZZLUEPK,Elm Park Underground Station,NaptanMetroStation,51.549775,0.19864,district,yes,6,"Elm Park Station,London Underground Ltd.,The Broadway,Hornchurch,Essex,RM12 4RW"
940GZZLUEPY,East Putney Underground Station,NaptanMetroStation,51.459205,-0.211,district,yes,2+3,"East Putney Station,Upper Richmond Rd,London,SW15"
940GZZLUERC,Edgware Road (Circle Line) Underground Station,NaptanMetroStation,51.519858,-0.167832,district,yes,1,"Edgware Road Circle,London Underground Ltd.,Chapel Street,London,NW1 5DH"
940GZZLUFBY,Fulham Broadway Underground Station,NaptanMetroStation,51.480081,-0.195422,district,yes,2,"Fulham Broadway Station,London Underground Ltd.,Fulham Broadway,London,SW6 1BY"
940GZZLUGBY,Gunnersbury Underground Station,NaptanMetroStation,51.491803,-0.275267,district,no,3,"Gunnersbury,London Overground Ltd,Chiswick High Road,LONDON,W4 4AN"
940GZZLUGTR,Gloucester Road Underground Station,NaptanMetroStation,51.494316,-0.182658,district,yes,1,"Gloucester Road Station,London Underground Ltd.,Gloucester Rd,London,SW7 4SF"
940GZZLUHCH,Hornchurch Underground Station,NaptanMetroStation,51.554093,0.219116,district,yes,6,"Hornchurch Station,London Underground Ltd.,Station Lane,Hornchurch,Essex,RM12 6LS"
940GZZLUHSD,Hammersmith (Dist&Picc Line) Underground Station,NaptanMetroStation,51.4923,-0.22362,district,yes,2,"Hammersmith (D & P),London Underground Ltd.,Hammersmith Broadway,London,W6 8AB"
940GZZLUHSK,High Street Kensington Underground Station,NaptanMetroStation,51.501055,-0.192792,district,yes,1,"High Street Kensington Station,London Underground Ltd.,Kensington High St,London,W8 5SA"
940GZZLUKOY,Kensington (Olympia) Underground Station,NaptanMetroStation,51.497624,-0.210015,district,yes,2,"Kensington Olympia,Kensington Olympia Station,Olympia Way,LONDON,W14 0NE"
940GZZLUKWG,Kew Gardens Underground Station,NaptanMetroStation,51.477058,-0.285241,district,yes,3+4,"Kew Gardens Station,London Overground Ltd.,Station Approach,RICHMOND,TW9 3BZ"
940GZZLUMED,Mile End Underground Station,NaptanMetroStation,51.525122,-0.03364,district,yes,2,"Mile End Station,London Underground Ltd.,Mile End Rd,London,E3 4DH"
940GZZLUMMT,Monument Underground Station,NaptanMetroStation,51.5107,-0.085969,district,yes,1,"Monument Station,London Underground Ltd.,King William St,London,EC4R 9AA"
940GZZLUMSH,Mansion House Underground Station,NaptanMetroStation,51.512117,-0.094009,district,yes,1,"Mansion House Station,London Underground Ltd.,38 Cannon St,London,EC4N 6JD"
940GZZLUNHG,Notting Hill Gate Underground Station,NaptanMetroStation,51.509128,-0.196104,district,yes,1+2,"Notting Hill Gate Station,London Underground Ltd.,Notting Hill Gate,London,W11 3HT"
940GZZLUPAC,Paddington Underground Station,NaptanMetroStation,51.516581,-0.175689,district,yes,1,"Paddington Underground Stations,London Underground Ltd.,Praed St,London,W2"
940GZZLUPLW,Plaistow Underground Station,NaptanMetroStation,51.531341,0.017451,district,yes,3,"Plaistow Station,London Underground Ltd.,Plaistow Rd,London,E15"
940GZZLUPSG,Parsons Green Underground Station,NaptanMetroStation,51.475277,-0.20117,district,yes,2,"Parsons Green Station,London Underground Ltd.,Parsons Green Lane,London,SW6 4HS"
940GZZLUPYB,Putney Bridge Underground Station,NaptanMetroStation,51.468262,-0.208731,district,no,2,"Putney Bridge Station,London Underground Ltd.,Station Approach,London,SW6 3UH"
940GZZLURMD,Richmond Underground Station,NaptanMetroStation,51.463237,-0.301336,district,yes,4,"Richmond,London Underground Ltd.,The Quadrant,Richmond,TW9 1DN"
940GZZLURVP,Ravenscourt Park Underground Station,NaptanMetroStation,51.494122,-0.235881,district,yes,2,"Ravenscourt Park Station,London Underground Ltd.,Ravenscourt Rd,London,W6 0UG"
940GZZLUSFB,Stamford Brook Underground Station,NaptanMetroStation,51.494917,-0.245704,district,yes,2,"Stamford Brook Station,London Underground Ltd.,Goldhawk Rd,London,W6"
940GZZLUSFS,Southfields Underground Station,NaptanMetroStation,51.445073,-0.206602,district,yes,3,"Southfields Station,Wimbledon Park Rd,London,SW18"
940GZZLUSGN,Stepney Green Underground Station,NaptanMetroStation,51.521858,-0.046596,district,yes,2,"Stepney Green Station,London Underground Ltd.,Mile End Rd,London,E1 4AQ"
940GZZLUSJP,St. James's Park Underground Station,NaptanMetroStation,51.499544,-0.133608,district,yes,1,"St. James's Park,London Underground Ltd.,Petty France,London,SW1H 0BD"
940GZZLUSKS,South Kensington Underground Station,NaptanMetroStation,51.494094,-0.174138,district,yes,1,"South Kensington Station,London Underground Ltd.,Pelham St,London,SW7 2NB"
940GZZLUSSQ,Sloane Square Underground Station,NaptanMetroStation,51.49227,-0.156377,district,yes,1,"Sloane Square Station,London Underground Ltd.,Sloane Square,London,SW1W 8BB"
940GZZLUTMP,Temple Underground Station,NaptanMetroStation,51.511006,-0.11426,district,yes,1,"Temple Station,London Underground Ltd.,Victoria Embankment,London,WC2R 2PH"
940GZZLUTNG,Turnham Green Underground Station,NaptanMetroStation,51.495148,-0.254555,district,yes,2,"Turnham Green Station,London Underground Ltd.,Turnham Green Terrace,London,W4 1LR"
940GZZLUTWH,Tower Hill Underground Station,NaptanMetroStation,51.509971,-0.076546,district,yes,1,"Tower Hill Station,London Underground Ltd.,Trinity Square,London,EC3N 4DJ"
940GZZLUUPB,Upminster Bridge Underground Station,NaptanMetroStation,51.55856,0.235809,district,yes,6,"Upminster Bridge Station,London Underground Ltd.,Upminster Rd,Hornchurch,Essex,RM12 6PL"
940GZZLUUPK,Upton Park Underground Station,NaptanMetroStation,51.53534,0.035263,district,yes,3,"Upton Park Station,London Underground Ltd.,Green St,London,E13 9AP"
940GZZLUUPM,Upminster Underground Station,NaptanMetroStation,51.559063,0.250882,district,yes,6,"Upminster Station NR Station Rd,Upminster,Essex,RM14 2TD"
940GZZLUUPY,Upney Underground Station,NaptanMetroStation,51.538372,0.10153,district,yes,4,"Upney Station,London Underground Ltd.,Upney Lane,Barking,Essex,IG11 9LS"
940GZZLUVIC,Victoria Underground Station,NaptanMetroStation,51.496359,-0.143102,district,yes,1,"Victoria Underground Station,London Underground Ltd.,Victoria St,London,SW1E 5ND"
940GZZLUWBN,West Brompton Underground Station,NaptanMetroStation,51.487268,-0.195599,district,yes,2,"West Brompton Station,London Underground Ltd.,Old Brompton Rd,London,SW5 9JX"
940GZZLUWHM,West Ham Underground Station,NaptanMetroStation,51.528136,0.005055,district,yes,2/3,"West Ham Underground Station,London Underground Ltd.,Manor Rd,London,E15 3BN"
940GZZLUWIM,Wimbledon Underground Station,NaptanMetroStation,51.421207,-0.206573,district,yes,3,"Wimbledon,London Underground Ltd.,The Broadway,London,SW19 7NL"
940GZZLUWIP,Wimbledon Park Underground Station,NaptanMetroStation,51.434573,-0.199719,district,yes,3,"Wimbledon Park Station,Arthur Rd,London,SW19 "
940GZZLUWKN,West Kensington Underground Station,NaptanMetroStation,51.490459,-0.206636,district,yes,2,"West Kensington Station,London Underground Ltd.,North End Rd,London,W14 9NL"
940GZZLUWPL,Whitechapel Underground Station,NaptanMetroStation,51.519518,-0.059971,district,no,2,"Whitechapel Station,London Underground Ltd.,277 Whitechapel Rd,London,E1 1BY"
940GZZLUWSM,Westminster Underground Station,NaptanMetroStation,51.50132,-0.124861,district,yes,1,"Westminster Station,London Underground Ltd.,Bridge St,London,SW1A 2JR"
940GZZLUADE,Aldgate East Underground Station,NaptanMetroStation,51.515037,-0.072384,hammersmith-city,yes,1,"Aldgate East Station,London Underground Ltd.,Whitechapel High St,London,E1 7PT"
940GZZLUBBB,Bromley-by-Bow Underground Station,NaptanMetroStation,51.524839,-0.011538,hammersmith-city,yes,2+3,"Bromley-By-Bow,London Underground Ltd.,Blackwell Tunnel Northern Approach,London,E3 3JJ"
940GZZLUBBN,Barbican Underground Station,NaptanMetroStation,51.520275,-0.097993,hammersmith-city,yes,1,"Barbican Station,London Underground Ltd.,Aldersgate St,London,EC1A 4JA"
940GZZLUBKG,Barking Underground Station,NaptanMetroStation,51.539321,0.081053,hammersmith-city,yes,4,"Barking Station BR Station Parade,Longbridge Rd,Barking,Essex,IG11 8TU"
940GZZLUBST,Baker Street Underground Station,NaptanMetroStation,51.522883,-0.15713,hammersmith-city,yes,1,"Baker Street Station Marylebone Rd,London,NW1"
940GZZLUBWR,Bow Road Underground Station,NaptanMetroStation,51.52694,-0.025128,hammersmith-city,no,2,"Bow Road Station,London Underground Ltd.,Bow Road,London,E3 4DH"
940GZZLUEHM,East Ham Underground Station,NaptanMetroStation,51.538948,0.051186,hammersmith-city,yes,3+4,"East Ham Station,London Underground Ltd.,High Street North,London,E6 2JA"
940GZZLUERC,Edgware Road (Circle Line) Underground Station,NaptanMetroStation,51.519858,-0.167832,hammersmith-city,yes,1,"Edgware Road Circle,London Underground Ltd.,Chapel Street,London,NW1 5DH"
940GZZLUESQ,Euston Square Underground Station,NaptanMetroStation,51.525604,-0.135829,hammersmith-city,yes,1,"Euston Square Station,London Underground Ltd.,Euston Rd,London,NW1 2BN"
940GZZLUFCN,Farringdon Underground Station,NaptanMetroStation,51.520252,-0.104913,hammersmith-city,no,1,"Farringdon Station,London Underground Ltd.,Cowcross St,London,EC1M 6BY"
940GZZLUGHK,Goldhawk Road Underground Station,NaptanMetroStation,51.502005,-0.226715,hammersmith-city,yes,2,"Goldhawk Road Station,London Underground Ltd.,Goldhawk Rd,London,W12 8EG"
940GZZLUGPS,Great Portland Street Underground Station,NaptanMetroStation,51.52384,-0.144262,hammersmith-city,yes,1,"Great Portland Street Station,London Underground Ltd.,Euston Rd,London,NW1"
940GZZLUHSC,Hammersmith (H&C Line) Underground Station,NaptanMetroStation,51.493383,-0.225033,hammersmith-city,no,2,"Hammersmith (H & C),London Underground Ltd.,Beadon Road,London,W6 7AA"
940GZZLUKSX,King's Cross St. Pancras Underground Station,NaptanMetroStation,51.530663,-0.123194,hammersmith-city,yes,1,"King's Cross St. Pancras,London Underground Ltd.,Euston Road,London,N1 9AL"
940GZZLULAD,Ladbroke Grove Underground Station,NaptanMetroStation,51.517449,-0.210391,hammersmith-city,yes,2,"Ladbroke Grove Station,London Underground Ltd.,Ladbroke Grove,London,W10 6HJ"
940GZZLULRD,Latimer Road Underground Station,NaptanMetroStation,51.513389,-0.217799,hammersmith-city,yes,2,"Latimer Road Station,London Underground Ltd.,Bramley Rd,London,W10 6SZ"
940GZZLULVT,Liverpool Street Underground Station,NaptanMetroStation,51.517372,-0.083182,hammersmith-city,yes,1,"Liverpool Street Underground Station Central,London Underground Ltd.,Liverpool Street,London,EC2M 7PP"
940GZZLUMED,Mile End Underground Station,NaptanMetroStation,51.525122,-0.03364,hammersmith-city,yes,2,"Mile End Station,London Underground Ltd.,Mile End Rd,London,E3 4DH"
940GZZLUMGT,Moorgate Underground Station,NaptanMetroStation,51.518176,-0.088322,hammersmith-city,no,1,"Moorgate Station,London Underground Ltd.,Moorfields,London,EC2Y 9AE"
940GZZLUPAH,Paddington (H&C Line)-Underground,NaptanMetroStation,51.518187,-0.178306,hammersmith-city,yes,1,"Plaistow Station,London Underground Ltd.,Plaistow Rd,London,E15"
940GZZLUPLW,Plaistow Underground Station,NaptanMetroStation,51.531341,0.017451,hammersmith-city,yes,3,"Royal Oak Station,London Underground Ltd.,Lord Hills Bridge,London,W2 6ET"
940GZZLURYO,Royal Oak Underground Station,NaptanMetroStation,51.519113,-0.188748,hammersmith-city,yes,2,"Shepherd's Bush Market,London Underground Ltd.,Uxbridge Road,London,W12 7JD"
940GZZLUSBM,Shepherd's Bush Market Underground Station,NaptanMetroStation,51.505579,-0.226375,hammersmith-city,yes,2,"Stepney Green Station,London Underground Ltd.,Mile End Rd,London,E1 4AQ"
940GZZLUSGN,Stepney Green Underground Station,NaptanMetroStation,51.521858,-0.046596,hammersmith-city,yes,2,"Upton Park Station,London Underground Ltd.,Green St,London,E13 9AP"
940GZZLUUPK,Upton Park Underground Station,NaptanMetroStation,51.53534,0.035263,hammersmith-city,yes,3,"West Ham Underground Station,London Underground Ltd.,Manor Rd,London,E15 3BN"
940GZZLUWHM,West Ham Underground Station,NaptanMetroStation,51.528136,0.005055,hammersmith-city,yes,2/3,"Wood Lane Station,London Underground Ltd.,Wood Lane,London,"
940GZZLUWLA,Wood Lane Underground Station,NaptanMetroStation,51.509669,-0.22453,hammersmith-city,no,2,"Whitechapel Station,London Underground Ltd.,277 Whitechapel Rd,London,E1 1BY"
940GZZLUWPL,Whitechapel Underground Station,NaptanMetroStation,51.519518,-0.059971,hammersmith-city,yes,2,"Westbourne Park Station,London Underground Ltd.,Western Rd,London,W11 1AB"
940GZZLUWSP,Westbourne Park Underground Station,NaptanMetroStation,51.52111,-0.201065,hammersmith-city,,2,
940GZZLUBMY,Bermondsey Underground Station,NaptanMetroStation,51.497953,-0.063769,jubilee,yes,2,"Bermondsey Station,London Underground Ltd.,142 - 154 Jamaica Rd,London,SE16 4RX"
940GZZLUBND,Bond Street Underground Station,NaptanMetroStation,51.514304,-0.149723,jubilee,no,1,"Bond Street Station,London Underground Ltd.,Oxford St,London,W1R 1FE"
940GZZLUBST,Baker Street Underground Station,NaptanMetroStation,51.522883,-0.15713,jubilee,yes,1,"Baker Street Station Marylebone Rd,London,NW1"
940GZZLUCGT,Canning Town Underground Station,NaptanMetroStation,51.513584,0.008322,jubilee,yes,2/3,"Canning Town Station,London Underground Ltd.,Silvertown Way,Canning Town,London,E16 1DQ"
940GZZLUCPK,Canons Park Underground Station,NaptanMetroStation,51.607701,-0.294693,jubilee,yes,5,"Canons Park Station,London Underground Ltd.,Whitchurch Lane,Edgware,Middx,HA8 6RN"
940GZZLUCWR,Canada Water Underground Station,NaptanMetroStation,51.497945,-0.049722,jubilee,yes,2,"Canada Water Station,London Underground Ltd.,Deal Porter Way,Surrey Quays,London,SE16"
940GZZLUCYF,Canary Wharf Underground Station,NaptanMetroStation,51.503488,-0.018246,jubilee,yes,2,"Canary Wharf Station,London Underground Ltd.,Heron Quays Road,Canary Wharf,London,E14 4HJ"
940GZZLUDOH,Dollis Hill Underground Station,NaptanMetroStation,51.551955,-0.239068,jubilee,no,3,"Dollis Hill Station,London Underground Ltd.,Hamilton Rd,London,NW10 5NB"
940GZZLUFYR,Finchley Road Underground Station,NaptanMetroStation,51.546825,-0.179845,jubilee,no,2,"Finchley Road Underground Station,London Underground Ltd.,Finchley Road,London,NW3 6OP"
940GZZLUGPK,Green Park Underground Station,NaptanMetroStation,51.506947,-0.142787,jubilee,yes,1,"Green Park Station,London Underground Ltd.,Piccadilly,London,W1J 9DZ"
940GZZLUKBN,Kilburn Underground Station,NaptanMetroStation,51.546803,-0.204105,jubilee,yes,2,"Kilburn Station,London Underground Ltd.,Shootup Hill,London,NW6 7QL"
940GZZLUKBY,Kingsbury Underground Station,NaptanMetroStation,51.584845,-0.27879,jubilee,yes,4,"Kingsbury Station,London Underground Ltd.,Kingsbury Rd,London,NW9 9EG"
940GZZLULNB,London Bridge Underground Station,NaptanMetroStation,51.505721,-0.088873,jubilee,yes,1,"London Bridge Underground Station,London Underground Ltd.,21 Duke St Hill,London,SE1 2SW"
940GZZLUNDN,Neasden Underground Station,NaptanMetroStation,51.553986,-0.249837,jubilee,yes,3,"Neasden Station,London Underground Ltd.,Neasden Lane,London,NW10 1PH"
940GZZLUNGW,North Greenwich Underground Station,NaptanMetroStation,51.50047,0.004287,jubilee,yes,2+3,"North Greenwich Station,London Underground Ltd.,5 Millenium Way,London,SE10 0PH"
940GZZLUQBY,Queensbury Underground Station,NaptanMetroStation,51.594188,-0.286219,jubilee,yes,4,"Queensbury Station,London Underground Ltd.,Cumberland Rd,Harrow,Middx,HA8 5NP"
940GZZLUSJW,St. John's Wood Underground Station,NaptanMetroStation,51.534521,-0.173948,jubilee,yes,2,"St. John's Wood,London Underground Ltd.,Wellington Road,London,NW8 6DN"
940GZZLUSTD,Stratford Underground Station,NaptanMetroStation,51.541806,-0.003458,jubilee,yes,2/3,"Stratford Station BR Station St,London,E15 1DE"
940GZZLUSTM,Stanmore Underground Station,NaptanMetroStation,51.619839,-0.303266,jubilee,yes,5,"Stanmore Station,London Underground Ltd.,London Rd,Stanmore,Middx,HA7 4PD"
940GZZLUSWC,Swiss Cottage Underground Station,NaptanMetroStation,51.543681,-0.174894,jubilee,yes,2,"Swiss Cottage Station,London Underground Ltd.,Finchley Rd,London,NW3 6HY"
940GZZLUSWK,Southwark Underground Station,NaptanMetroStation,51.503976,-0.10494,jubilee,yes,1,"Southwark Station,London Underground Ltd.,68 - 70 Blackfriars Rd,London,SE1 8JZ"
940GZZLUWHM,West Ham Underground Station,NaptanMetroStation,51.528136,0.005055,jubilee,yes,2/3,"West Ham Underground Station,London Underground Ltd.,Manor Rd,London,E15 3BN"
940GZZLUWHP,West Hampstead Underground Station,NaptanMetroStation,51.546638,-0.191059,jubilee,yes,2,"West Hampstead Underground Station,London Underground Ltd.,West End Lane,London,NW6 2LS"
940GZZLUWIG,Willesden Green Underground Station,NaptanMetroStation,51.549146,-0.221537,jubilee,yes,2+3,"Willesden Green Station,London Underground Ltd.,Walm Lane,London,NW2 4QT"
940GZZLUWLO,Waterloo Underground Station,NaptanMetroStation,51.503299,-0.11478,jubilee,yes,1,"Waterloo Underground Station,London Underground Ltd.,York Rd,London,SE1 7ND"
940GZZLUWSM,Westminster Underground Station,NaptanMetroStation,51.50132,-0.124861,jubilee,yes,1,"Westminster Station,London Underground Ltd.,Bridge St,London,SW1A 2JR"
940GZZLUWYP,Wembley Park Underground Station,NaptanMetroStation,51.563198,-0.279262,jubilee,yes,4,"Wembley Park Station,London Underground Ltd.,Bridge Road,Wembley,Middlesex,HA9 9AA"
940GZZLUALD,Aldgate Underground Station,NaptanMetroStation,51.514246,-0.075689,metropolitan,yes,1,"Aldgate Station,London Underground Ltd.,Aldgate High St,London,EC3N 1AH"
940GZZLUAMS,Amersham Underground Station,NaptanMetroStation,51.674126,-0.607714,metropolitan,yes,9,"Amersham Station,Stn Approach,Amersham,Bucks HP6 5AZ"
940GZZLUBBN,Barbican Underground Station,NaptanMetroStation,51.520275,-0.097993,metropolitan,yes,1,"Barbican Station,London Underground Ltd.,Aldersgate St,London,EC1A 4JA"
940GZZLUBST,Baker Street Underground Station,NaptanMetroStation,51.522883,-0.15713,metropolitan,yes,1,"Baker Street Station Marylebone Rd,London,NW1"
940GZZLUCAL,Chalfont & Latimer Underground Station,NaptanMetroStation,51.667985,-0.560689,metropolitan,yes,8,"Chalfont & Latimer Station,London Underground Ltd.,Station Approach,Little Chalfont,Amersham,Bucks,HP7 9PR"
940GZZLUCSM,Chesham Underground Station,NaptanMetroStation,51.705208,-0.611247,metropolitan,yes,9,"Chesham Station,London Underground Ltd.,Station Approach,Chesham,Bucks,HP5 1DH"
940GZZLUCXY,Croxley Underground Station,NaptanMetroStation,51.647044,-0.441718,metropolitan,yes,7,"Croxley Station,London Underground Ltd.,Watford Road,Rickmansworth,Herts,WD3 3DY"
940GZZLUCYD,Chorleywood Underground Station,NaptanMetroStation,51.654358,-0.518461,metropolitan,yes,7,"Chorleywood Station,London Underground Ltd.,Station Approach,Chorleywood,Rickmansworth,Herts WD3 5ND"
940GZZLUEAE,Eastcote Underground Station,NaptanMetroStation,51.576506,-0.397373,metropolitan,no,5,"Eastcote Station,London Underground Ltd.,Field End Rd,Ruislip,Middx,HA5 1QZ"
940GZZLUESQ,Euston Square Underground Station,NaptanMetroStation,51.525604,-0.135829,metropolitan,yes,1,"Euston Square Station,London Underground Ltd.,Euston Rd,London,NW1 2BN"
940GZZLUFCN,Farringdon Underground Station,NaptanMetroStation,51.520252,-0.104913,metropolitan,no,1,"Farringdon Station,London Underground Ltd.,Cowcross St,London,EC1M 6BY"
940GZZLUFYR,Finchley Road Underground Station,NaptanMetroStation,51.546825,-0.179845,metropolitan,no,2,"Finchley Road Underground Station,London Underground Ltd.,Finchley Road,London,NW3 6OP"
940GZZLUGPS,Great Portland Street Underground Station,NaptanMetroStation,51.52384,-0.144262,metropolitan,yes,1,"Great Portland Street Station,London Underground Ltd.,Euston Rd,London,NW1"
940GZZLUHGD,Hillingdon Underground Station,NaptanMetroStation,51.553715,-0.449828,metropolitan,yes,6,"Hillingdon Station,London Underground Ltd.,Long Lane,Hillingdon,Uxbridge,Middlesex,UB10 9NR"
940GZZLUHOH,Harrow-on-the-Hill Underground Station,NaptanMetroStation,51.579195,-0.337225,metropolitan,yes,5,"Ickenham Station,London Underground Ltd.,Glebe Avenue,Uxbridge,Middx,UB10 8PD"
940GZZLUICK,Ickenham Underground Station,NaptanMetroStation,51.561716,-0.442256,metropolitan,yes,6,"King's Cross St. Pancras,London Underground Ltd.,Euston Road,London,N1 9AL"
940GZZLUKSX,King's Cross St. Pancras Underground Station,NaptanMetroStation,51.530663,-0.123194,metropolitan,yes,1,"Liverpool Street Underground Station Central,London Underground Ltd.,Liverpool Street,London,EC2M 7PP"
940GZZLULVT,Liverpool Street Underground Station,NaptanMetroStation,51.517372,-0.083182,metropolitan,yes,1,"Moorgate Station,London Underground Ltd.,Moorfields,London,EC2Y 9AE"
940GZZLUMGT,Moorgate Underground Station,NaptanMetroStation,51.518176,-0.088322,metropolitan,no,1,"Moor Park Station,London Underground Ltd.,Sandy Lodge Lane,Rickmansworth,Herts,HA6 2JQ."
940GZZLUMPK,Moor Park Underground Station,NaptanMetroStation,51.629845,-0.432454,metropolitan,yes,6+7,"North Harrow Station,London Underground Ltd.,Station Rd,North Harrow,Middx,HA2 7SR"
940GZZLUNHA,North Harrow Underground Station,NaptanMetroStation,51.584872,-0.362408,metropolitan,yes,5,"Northwick Park Station,London Underground Ltd.,Northwick Avenue,Harrow,Middx,HA3 0AT"
940GZZLUNKP,Northwick Park Underground Station,NaptanMetroStation,51.578481,-0.318056,metropolitan,yes,4,"Northwood Station,London Underground Ltd.,Station Approach,Green Lane,Northwood,Middx,HA6 2XL"
940GZZLUNOW,Northwood Underground Station,NaptanMetroStation,51.611053,-0.423829,metropolitan,yes,6,"Northwood Hills Station,London Underground Ltd.,Joel St,Northwood,Middx,HA6 1NZ"
940GZZLUNWH,Northwood Hills Underground Station,NaptanMetroStation,51.600572,-0.409464,metropolitan,yes,6,"Pinner Station,London Underground Ltd.,Station Approach,Pinner,Middx,HA5 5LZ"
940GZZLUPNR,Pinner Underground Station,NaptanMetroStation,51.592901,-0.381161,metropolitan,yes,5,"Preston Road Station,London Underground Ltd.,Preston Rd,Wembley,Middx,HA3 0PS"
940GZZLUPRD,Preston Road Underground Station,NaptanMetroStation,51.571972,-0.295107,metropolitan,yes,4,"Rickmansworth Station,London Underground Ltd.,Station Approach,Rickmansworth,Herts,WD3 1QY"
940GZZLURKW,Rickmansworth Underground Station,NaptanMetroStation,51.640207,-0.473703,metropolitan,yes,7,"Ruislip Manor Station,London Underground Ltd.,Victoria Rd,Ruislip,Middx,HA4 9AA"
940GZZLURSM,Ruislip Manor Underground Station,NaptanMetroStation,51.573202,-0.412973,metropolitan,yes,6,"Ruislip Station,London Underground Ltd.,Station Approach,Ruislip,Middx,HA4 8LD"
940GZZLURSP,Ruislip Underground Station,NaptanMetroStation,51.571354,-0.421898,metropolitan,yes,6,"Rayners Lane Station,London Underground Ltd.,Alexandra Avenue,Harrow,HA5 5EG,Middx"
940GZZLURYL,Rayners Lane Underground Station,NaptanMetroStation,51.575147,-0.371127,metropolitan,yes,5,"Uxbridge Station,London Underground Ltd.,High St,Uxbridge,Middx,UB8 1JZ"
940GZZLUUXB,Uxbridge Underground Station,NaptanMetroStation,51.546565,-0.477949,metropolitan,yes,6,"Watford Station,London Underground Ltd.,Cassiobury Park Avenue,Watford,Herts,WD18 7LE"
940GZZLUWAF,Watford Underground Station,NaptanMetroStation,51.657446,-0.417377,metropolitan,no,7,"West Harrow Station,London Underground Ltd.,Vaughan Rd,Harrow,Middx,HA1 4HE"
940GZZLUWHW,West Harrow Underground Station,NaptanMetroStation,51.57971,-0.3534,metropolitan,yes,5,"Willesden Green Station,London Underground Ltd.,Walm Lane,London,NW2 4QT"
940GZZLUWIG,Willesden Green Underground Station,NaptanMetroStation,51.549146,-0.221537,metropolitan,yes,2+3,"Wembley Park Station,London Underground Ltd.,Bridge Road,Wembley,Middlesex,HA9 9AA"
940GZZLUWYP,Wembley Park Underground Station,NaptanMetroStation,51.563198,-0.279262,metropolitan,yes,4,
940GZZLUACY,Archway Underground Station,NaptanMetroStation,51.565478,-0.134819,northern,yes,2+3,"Archway Station,London Underground Ltd.,Junction Rd,London,N19 5RQ"
940GZZLUAGL,Angel Underground Station,NaptanMetroStation,51.532624,-0.105898,northern,yes,1,"Angel Station,London Underground Ltd.,City Rd,London,EC1V 1NE"
940GZZLUBLM,Balham Underground Station,NaptanMetroStation,51.443288,-0.152997,northern,yes,3,"Balham Underground Station,London Underground Ltd.,Balham High Rd,London,SW12 9BW"
940GZZLUBNK,Bank Underground Station,NaptanMetroStation,51.513356,-0.088899,northern,yes,1,"Bank/Monument Complex,London Underground Ltd.,Princes St,London,EC3V 3LA"
940GZZLUBOR,Borough Underground Station,NaptanMetroStation,51.501199,-0.09337,northern,yes,1,"Borough Station,London Underground Ltd.,Borough High St,London,SE1 1JX"
940GZZLUBTK,Burnt Oak Underground Station,NaptanMetroStation,51.602774,-0.264048,northern,yes,4,"Burnt Oak Station,London Underground Ltd.,Watling Avenue,Edgware,Middx,HA8 0LA"
940GZZLUBTX,Brent Cross Underground Station,NaptanMetroStation,51.57665,-0.213622,northern,yes,3,"Brent Cross Station,London Underground Ltd.,Highfield Avenue,London,NW11 9UA"
940GZZLUBZP,Belsize Park Underground Station,NaptanMetroStation,51.550311,-0.164648,northern,yes,2,"Belsize Park Station,London Underground Ltd.,Haverstock Hill,London,NW3 2AL"
940GZZLUCFM,Chalk Farm Underground Station,NaptanMetroStation,51.544118,-0.153388,northern,yes,2,"Chalk Farm Station,London Underground Ltd.,Adelaide Rd,London,NW3 2BP"
940GZZLUCHX,Charing Cross Underground Station,NaptanMetroStation,51.50741,-0.127277,northern,yes,1,"Charing Cross Underground Station,London Underground Ltd.,Trafalgar Square,London,WC2N 5DR"
940GZZLUCND,Colindale Underground Station,NaptanMetroStation,51.595424,-0.249919,northern,yes,4,"Colindale Station,London Underground Ltd.,Colindale Avenue,London,NW9 5HR"
940GZZLUCPC,Clapham Common Underground Station,NaptanMetroStation,51.461742,-0.138317,northern,yes,2,"Clapham Common Station,London Underground Ltd.,The Pavement,London,SW4 7AJ"
940GZZLUCPN,Clapham North Underground Station,NaptanMetroStation,51.465135,-0.130016,northern,yes,2,"Clapham North Station,London Underground Ltd.,Clapham High St,London,SW4 7TS"
940GZZLUCPS,Clapham South Underground Station,NaptanMetroStation,51.452654,-0.147582,northern,yes,2+3,"Clapham South Station,London Underground Ltd.,Balham Hill,London,SW12 9DU"
940GZZLUCSD,Colliers Wood Underground Station,NaptanMetroStation,51.41816,-0.178086,northern,yes,3,"Colliers Wood Station,London Underground Ltd.,Colliers Wood High St,London,SW19 2HR"
940GZZLUCTN,Camden Town Underground Station,NaptanMetroStation,51.539292,-0.14274,northern,yes,2,"Camden Town Station,London Underground Ltd.,Camden High St,London,NW1 8NH"
940GZZLUEAC,Elephant & Castle Underground Station,NaptanMetroStation,51.494536,-0.100606,northern,yes,1+2,"Elephant & Castle Underground Station,London Underground Ltd.,London Rd,London,SE1 6LW"
940GZZLUEFY,East Finchley Underground Station,NaptanMetroStation,51.587131,-0.165012,northern,yes,3,"East Finchley Station,London Underground Ltd.,High Rd,London,N2 0NW"
940GZZLUEGW,Edgware Underground Station,NaptanMetroStation,51.613653,-0.274928,northern,yes,5,"Edgware Station,London Underground Ltd.,Station Rd,Edgware,Middx,HA8 7AW"
940GZZLUEMB,Embankment Underground Station,NaptanMetroStation,51.507058,-0.122666,northern,yes,1,"Embankment Station,London Underground Ltd.,Villiers St,London,WC2N 6NS"
940GZZLUEUS,Euston Underground Station,NaptanMetroStation,51.528186,-0.134239,northern,yes,1,"Euston Underground Station,London Underground Ltd.,Eversholt St,London,NW1 2DU"
940GZZLUFYC,Finchley Central Underground Station,NaptanMetroStation,51.600921,-0.192527,northern,yes,4,"Finchley Central Station,London Underground Ltd.,Regents Park Road,London,N3 2RY"
940GZZLUGDG,Goodge Street Underground Station,NaptanMetroStation,51.520599,-0.134361,northern,yes,1,"Goodge Street Station,London Underground Ltd.,75 Tottenham Court Rd,London,W1P 9PA"
940GZZLUGGN,Golders Green Underground Station,NaptanMetroStation,51.572259,-0.194039,northern,yes,3,"Golders Green Station,London Underground Ltd.,North End Rd,London,NW11 7RN"
940GZZLUHBT,High Barnet Underground Station,NaptanMetroStation,51.650541,-0.194298,northern,yes,5,"High Barnet Station,London Underground Ltd.,Barnet Hill,Barnet,Herts,EN5 5RP"
940GZZLUHCL,Hendon Central Underground Station,NaptanMetroStation,51.583301,-0.226424,northern,yes,3+4,"Hendon Central Station,London Underground Ltd.,Queens Rd,London,NW4 3AS"
940GZZLUHGT,Highgate Underground Station,NaptanMetroStation,51.577532,-0.145857,northern,yes,3,"Highgate Station,London Underground Ltd.,Archway Rd,London,N6"
940GZZLUHTD,Hampstead Underground Station,NaptanMetroStation,51.556632,-0.178487,northern,yes,2+3,"Hampstead Station,London Underground Ltd.,Hampstead High St,London,NW3 1QG"
940GZZLUKNG,Kennington Underground Station,NaptanMetroStation,51.488337,-0.105963,northern,yes,2,"Kennington Station,London Underground Ltd.,Kennington Park Rd,London,SE11 4QJ"
940GZZLUKSH,Kentish Town Underground Station,NaptanMetroStation,51.550312,-0.140733,northern,yes,2,"Kentish Town Underground Station,London Underground Ltd.,Kentish Town Rd,London,NW5 2AA"
940GZZLUKSX,King's Cross St. Pancras Underground Station,NaptanMetroStation,51.530663,-0.123194,northern,yes,1,"King's Cross St. Pancras,London Underground Ltd.,Euston Road,London,N1 9AL"
940GZZLULNB,London Bridge Underground Station,NaptanMetroStation,51.505721,-0.088873,northern,yes,1,"London Bridge Underground Station,London Underground Ltd.,21 Duke St Hill,London,SE1 2SW"
940GZZLULSQ,Leicester Square Underground Station,NaptanMetroStation,51.511386,-0.128426,northern,yes,1,"Leicester Square Station,London Underground Ltd.,Cranbourn St,London,WC2H 0AP"
940GZZLUMDN,Morden Underground Station,NaptanMetroStation,51.402142,-0.194839,northern,yes,4,"Morden Underground Station,London Underground Ltd.,London Rd,Morden,Surrey,SM4 5AZ"
940GZZLUMGT,Moorgate Underground Station,NaptanMetroStation,51.518176,-0.088322,northern,no,1,"Moorgate Station,London Underground Ltd.,Moorfields,London,EC2Y 9AE"
940GZZLUMHL,Mill Hill East Underground Station,NaptanMetroStation,51.608229,-0.209986,northern,yes,4,"Mill Hill East Station,London Underground Ltd.,Bittacy Hill,London,NW7 1BS"
940GZZLUMTC,Mornington Crescent Underground Station,NaptanMetroStation,51.534679,-0.138789,northern,yes,2,"Mornington Crescent Station,London Underground Ltd.,Eversholt St,London,NW1 2JA"
940GZZLUODS,Old Street Underground Station,NaptanMetroStation,51.525864,-0.08777,northern,yes,1,"Old Street Station,London Underground Ltd.,Old St,London,EC1Y 1BE"
940GZZLUOVL,Oval Underground Station,NaptanMetroStation,51.48185,-0.112439,northern,yes,2,"Oval Station,London Underground Ltd.,318 Kennington Park Rd,London,SE11 4PP"
940GZZLUSKW,Stockwell Underground Station,NaptanMetroStation,51.472184,-0.122644,northern,yes,2,"Stockwell Station,London Underground Ltd.,Clapham Rd,London,SW9 9AE"
940GZZLUSWN,South Wimbledon Underground Station,NaptanMetroStation,51.415309,-0.192005,northern,yes,3+4,"South Wimbledon Station,London Underground Ltd.,High St,London,SW19 1DE"
940GZZLUTAW,Totteridge & Whetstone Underground Station,NaptanMetroStation,51.630597,-0.17921,northern,yes,4,"Totteridge & Whetstone Station,London Underground Ltd.,Totteridge Lane,London,N20 9QP"
940GZZLUTBC,Tooting Bec Underground Station,NaptanMetroStation,51.435678,-0.159736,northern,yes,3,"Tooting Bec Station,London Underground Ltd.,Balham High Rd,London,SW17 9AH"
940GZZLUTBY,Tooting Broadway Underground Station,NaptanMetroStation,51.42763,-0.168374,northern,yes,3,"Tooting Broadway Station,London Underground Ltd.,Tooting High St,London,SW17 0SU"
940GZZLUTCR,Tottenham Court Road Underground Station,NaptanMetroStation,51.516426,-0.13041,northern,no,1,"Tottenham Court Road Station,London Underground Ltd.,Oxford St,London,W1"
940GZZLUTFP,Tufnell Park Underground Station,NaptanMetroStation,51.556822,-0.138433,northern,yes,2,"Tufnell Park Station,London Underground Ltd.,Fortess Rd,London,N19 5QB"
940GZZLUWFN,West Finchley Underground Station,NaptanMetroStation,51.609426,-0.188362,northern,yes,4,"West Finchley Station,London Underground Ltd.,Nether Street,London,N3 1NT"
940GZZLUWLO,Waterloo Underground Station,NaptanMetroStation,51.503299,-0.11478,northern,yes,1,"Waterloo Underground Station,London Underground Ltd.,York Rd,London,SE1 7ND"
940GZZLUWOP,Woodside Park Underground Station,NaptanMetroStation,51.618014,-0.18542,northern,yes,4,"Woodside Park Station,London Underground Ltd.,Woodside Park Rd,London,N12 8SE"
940GZZLUWRR,Warren Street Underground Station,NaptanMetroStation,51.524951,-0.138321,northern,yes,1,"Warren Street Station,London Underground Ltd.,Tottenham Court Rd,London,NW1 3AA"
940GZZLUACT,Acton Town Underground Station,NaptanMetroStation,51.503057,-0.280462,piccadilly,yes,3,"Acton Town Station,London Underground Ltd.,Gunnersbury Lane,London,W3 8HN"
940GZZLUALP,Alperton Underground Station,NaptanMetroStation,51.540627,-0.29961,piccadilly,yes,4,"Alperton Station,London Underground Ltd.,Ealing Rd,Wembley,Middlesex,HA0 4LL"
940GZZLUASG,Arnos Grove Underground Station,NaptanMetroStation,51.616446,-0.133062,piccadilly,yes,4,"Arnos Grove Station,London Underground Ltd.,Bowes Rd,London,N11 1AN"
940GZZLUASL,Arsenal Underground Station,NaptanMetroStation,51.558655,-0.107457,piccadilly,yes,2,"Arsenal Station,London Underground Ltd.,Highbury Hill,London,N5 1LP"
940GZZLUBDS,Bounds Green Underground Station,NaptanMetroStation,51.607034,-0.124235,piccadilly,yes,3+4,"Bounds Green Station,London Underground Ltd.,Bounds Green Rd,London,N11 2EU"
940GZZLUBOS,Boston Manor Underground Station,NaptanMetroStation,51.495635,-0.324939,piccadilly,yes,4,"Boston Manor Station,London Underground Ltd.,Boston Manor Rd,Brentford,Middx,TW8 9LQ"
940GZZLUBSC,Barons Court Underground Station,NaptanMetroStation,51.490311,-0.213427,piccadilly,yes,2,"Barons Court Station,London Underground Ltd.,Pallister Rd,London,W14"
940GZZLUCAR,Caledonian Road Underground Station,NaptanMetroStation,51.548519,-0.118493,piccadilly,yes,2,"Caledonian Road Underground Station,London Underground Ltd.,Caledonian Rd,London,N7 9BA"
940GZZLUCGN,Covent Garden Underground Station,NaptanMetroStation,51.513093,-0.124436,piccadilly,yes,1,"Covent Garden Station,London Underground Ltd.,Long Acre,London,WC2E 9JT"
940GZZLUCKS,Cockfosters Underground Station,NaptanMetroStation,51.65152,-0.149171,piccadilly,yes,5,"Cockfosters Station,London Underground Ltd.,Cockfosters Rd,Barnet,Herts,EN4 0DZ"
940GZZLUEAE,Eastcote Underground Station,NaptanMetroStation,51.576506,-0.397373,piccadilly,no,5,"Eastcote Station,London Underground Ltd.,Field End Rd,Ruislip,Middx,HA5 1QZ"
940GZZLUECM,Ealing Common Underground Station,NaptanMetroStation,51.51014,-0.288265,piccadilly,yes,3,"Ealing Common Station,London Underground Ltd.,Uxbridge Rd,London,W5 3LD"
940GZZLUECT,Earl's Court Underground Station,NaptanMetroStation,51.492063,-0.193378,piccadilly,yes,1+2,"Earl's Court Station,London Underground Ltd.,Earl's Court Rd,London,SW5 9QA"
940GZZLUFPK,Finsbury Park Underground Station,NaptanMetroStation,51.564158,-0.106825,piccadilly,yes,2,"Finsbury Park Underground Station,London Underground Ltd.,Wells Terrace,London,N4 3JU"
940GZZLUGPK,Green Park Underground Station,NaptanMetroStation,51.506947,-0.142787,piccadilly,yes,1,"Green Park Station,London Underground Ltd.,Piccadilly,London,W1J 9DZ"
940GZZLUGTR,Gloucester Road Underground Station,NaptanMetroStation,51.494316,-0.182658,piccadilly,yes,1,"Gloucester Road Station,London Underground Ltd.,Gloucester Rd,London,SW7 4SF"
940GZZLUHBN,Holborn Underground Station,NaptanMetroStation,51.51758,-0.120475,piccadilly,yes,1,"Holborn Station,London Underground Ltd.,Kingsway,London,WC2B 6AA"
940GZZLUHGD,Hillingdon Underground Station,NaptanMetroStation,51.553715,-0.449828,piccadilly,yes,6,"Hillingdon Station,London Underground Ltd.,Long Lane,Hillingdon,Uxbridge,Middlesex,UB10 9NR"
940GZZLUHNX,Hatton Cross Underground Station,NaptanMetroStation,51.466747,-0.423191,piccadilly,yes,5+6,"Hatton Cross Station,London Underground Ltd.,Great South West Rd,Feltham,Middx,"
940GZZLUHPC,Hyde Park Corner Underground Station,NaptanMetroStation,51.503035,-0.152441,piccadilly,yes,1,"Hyde Park Corner Station,London Underground Ltd.,Knightsbridge,London,SW1X 7LY"
940GZZLUHR4,Heathrow Terminal 4 Underground Station,NaptanMetroStation,51.458524,-0.445771,piccadilly,yes,6,"Heathrow T4 Station,London Underground Ltd.,Hthrw Airport complex,Trmnl 4,Hounslow,Middx"
940GZZLUHR5,Heathrow Terminal 5 Underground Station,NaptanMetroStation,51.470052,-0.49056,piccadilly,no,6,"Heathrow T5 Station,London Underground Ltd.,Hthrw Airport complex,Trmnl 5,Hounslow,Middx"
940GZZLUHRC,Heathrow Terminals 1-2-3 Underground Station ,NaptanMetroStation,51.471235,-0.452265,piccadilly,yes,6,"Heathrow Terminals 1, 2, 3,London Underground Ltd.,Wellington Road,Hounslow,Middlesex,TW6 1JH"
940GZZLUHSD,Hammersmith (Dist&Picc Line) Underground Station,NaptanMetroStation,51.4923,-0.22362,piccadilly,yes,2,"Hammersmith (D & P),London Underground Ltd.,Hammersmith Broadway,London,W6 8AB"
940GZZLUHWC,Hounslow Central Underground Station,NaptanMetroStation,51.471295,-0.366578,piccadilly,yes,4,"Hounslow Central Station,London Underground Ltd.,Lampton Rd,Hounslow,Middx,TW3 1JG"
940GZZLUHWE,Hounslow East Underground Station,NaptanMetroStation,51.473213,-0.356474,piccadilly,yes,4,"Hounslow East Station,London Underground Ltd.,Kingsley Rd,Hounslow,Middx,TW3 4AB"
940GZZLUHWT,Hounslow West Underground Station,NaptanMetroStation,51.473469,-0.386544,piccadilly,yes,5,"Hounslow West Station,London Underground Ltd.,Bath Rd,Hounslow,Middx,TW3 3DH"
940GZZLUHWY,Holloway Road Underground Station,NaptanMetroStation,51.552697,-0.113244,piccadilly,yes,2,"Holloway Road Station,London Underground Ltd.,Holloway Rd,London,N7 8HS"
940GZZLUICK,Ickenham Underground Station,NaptanMetroStation,51.561716,-0.442256,piccadilly,yes,6,"Ickenham Station,London Underground Ltd.,Glebe Avenue,Uxbridge,Middx,UB10 8PD"
940GZZLUKNB,Knightsbridge Underground Station,NaptanMetroStation,51.501669,-0.160508,piccadilly,yes,1,"Knightsbridge Station,London Underground Ltd.,Sloane St,London,SW1"
940GZZLUKSX,King's Cross St. Pancras Underground Station,NaptanMetroStation,51.530663,-0.123194,piccadilly,yes,1,"King's Cross St. Pancras,London Underground Ltd.,Euston Road,London,N1 9AL"
940GZZLULSQ,Leicester Square Underground Station,NaptanMetroStation,51.511386,-0.128426,piccadilly,yes,1,"Leicester Square Station,London Underground Ltd.,Cranbourn St,London,WC2H 0AP"
940GZZLUMRH,Manor House Underground Station,NaptanMetroStation,51.570738,-0.096118,piccadilly,yes,2+3,"Manor House Station,London Underground Ltd.,Green Lanes,London,N4 1BZ"
940GZZLUNEN,North Ealing Underground Station,NaptanMetroStation,51.517505,-0.288868,piccadilly,yes,3,"North Ealing Station,London Underground Ltd.,Station Road,London,W5 3AF"
940GZZLUNFD,Northfields Underground Station,NaptanMetroStation,51.499319,-0.314719,piccadilly,yes,3,"Northfields Station,London Underground Ltd.,Northfield Avenue,London,W13 9QU"
940GZZLUOAK,Oakwood Underground Station,NaptanMetroStation,51.647726,-0.132182,piccadilly,yes,5,"Oakwood Station,London Underground Ltd.,Bramley Rd,London,N14 4UT"
940GZZLUOSY,Osterley Underground Station,NaptanMetroStation,51.481274,-0.352224,piccadilly,yes,4,"Osterley Station,London Underground Ltd.,Great West Rd,Isleworth,Middx,TW7 4PU"
940GZZLUPCC,Piccadilly Circus Underground Station,NaptanMetroStation,51.51005,-0.133798,piccadilly,yes,1,"Piccadilly Circus Station,London Underground Ltd.,Piccadilly Circus,London,W1J 9HP"
940GZZLUPKR,Park Royal Underground Station,NaptanMetroStation,51.527123,-0.284341,piccadilly,yes,3,"Park Royal Station,London Underground Ltd.,Western Avenue,London,W5 3EL"
940GZZLURSM,Ruislip Manor Underground Station,NaptanMetroStation,51.573202,-0.412973,piccadilly,yes,6,"Ruislip Manor Station,London Underground Ltd.,Victoria Rd,Ruislip,Middx,HA4 9AA"
940GZZLURSP,Ruislip Underground Station,NaptanMetroStation,51.571354,-0.421898,piccadilly,yes,6,"Ruislip Station,London Underground Ltd.,Station Approach,Ruislip,Middx,HA4 8LD"
940GZZLURSQ,Russell Square Underground Station,NaptanMetroStation,51.523073,-0.124285,piccadilly,yes,1,"Russell Square Station,London Underground Ltd.,Bernard St,London,WC1N 1LJ"
940GZZLURYL,Rayners Lane Underground Station,NaptanMetroStation,51.575147,-0.371127,piccadilly,yes,5,"Rayners Lane Station,London Underground Ltd.,Alexandra Avenue,Harrow,HA5 5EG,Middx"
940GZZLUSEA,South Ealing Underground Station,NaptanMetroStation,51.501003,-0.307424,piccadilly,yes,3,"South Ealing Station,London Underground Ltd.,South Ealing Rd,London,W5 4QB"
940GZZLUSGT,Southgate Underground Station,NaptanMetroStation,51.632315,-0.127816,piccadilly,yes,4,"Southgate Station,London Underground Ltd.,High St,London,N14"
940GZZLUSHH,South Harrow Underground Station,NaptanMetroStation,51.564888,-0.352492,piccadilly,yes,5,"South Harrow Station,London Underground Ltd.,South Hill Ave,Harrow,Middx,HA2 8HN"
940GZZLUSKS,South Kensington Underground Station,NaptanMetroStation,51.494094,-0.174138,piccadilly,yes,1,"South Kensington Station,London Underground Ltd.,Pelham St,London,SW7 2NB"
940GZZLUSUH,Sudbury Hill Underground Station,NaptanMetroStation,51.556946,-0.336435,piccadilly,yes,4,"Sudbury Hill Underground Station,London Underground Ltd.,Greenford Rd,Harrow,Middx,HA1 3RA"
940GZZLUSUT,Sudbury Town Underground Station,NaptanMetroStation,51.550815,-0.315745,piccadilly,yes,4,"Sudbury Town Station,London Underground Ltd.,Station Approach,Wembley,Middx,HA0 2LA"
940GZZLUTNG,Turnham Green Underground Station,NaptanMetroStation,51.495148,-0.254555,piccadilly,yes,2,"Turnham Green Station,London Underground Ltd.,Turnham Green Terrace,London,W4 1LR"
940GZZLUTPN,Turnpike Lane Underground Station,NaptanMetroStation,51.590272,-0.102953,piccadilly,yes,3,"Turnpike Lane Station,London Underground Ltd.,Westbury Avenue,London,N15 3NX"
940GZZLUUXB,Uxbridge Underground Station,NaptanMetroStation,51.546565,-0.477949,piccadilly,yes,6,"Uxbridge Station,London Underground Ltd.,High St,Uxbridge,Middx,UB8 1JZ"
940GZZLUWOG,Wood Green Underground Station,NaptanMetroStation,51.597479,-0.109886,piccadilly,yes,3,"Wood Green Station,London Underground Ltd.,High Rd,Wood Green,London,N22 4HH"
940GZZLUBLR,Blackhorse Road Underground Station,NaptanMetroStation,51.586919,-0.04115,victoria,yes,3,"Blackhorse Road Underground Station,London Underground Ltd.,Blackhorse Rd,London,E17 6ND"
940GZZLUBXN,Brixton Underground Station,NaptanMetroStation,51.462618,-0.114888,victoria,yes,2,"Brixton Underground Station,London Underground Ltd.,Brixton Rd,London,SW9 8HE"
940GZZLUEUS,Euston Underground Station,NaptanMetroStation,51.528186,-0.134239,victoria,yes,1,"Euston Underground Station,London Underground Ltd.,Eversholt St,London,NW1 2DU"
940GZZLUFPK,Finsbury Park Underground Station,NaptanMetroStation,51.564158,-0.106825,victoria,yes,2,"Finsbury Park Underground Station,London Underground Ltd.,Wells Terrace,London,N4 3JU"
940GZZLUGPK,Green Park Underground Station,NaptanMetroStation,51.506947,-0.142787,victoria,yes,1,"Green Park Station,London Underground Ltd.,Piccadilly,London,W1J 9DZ"
940GZZLUHAI,Highbury & Islington Underground Station,NaptanMetroStation,51.54635,-0.103324,victoria,yes,2,"Highbury & Islington Underground Station,London Underground Ltd.,Holloway Rd,London,N5 1RA"
940GZZLUKSX,King's Cross St. Pancras Underground Station,NaptanMetroStation,51.530663,-0.123194,victoria,yes,1,"King's Cross St. Pancras,London Underground Ltd.,Euston Road,London,N1 9AL"
940GZZLUOXC,Oxford Circus Underground Station,NaptanMetroStation,51.515224,-0.141903,victoria,yes,1,"Oxford Circus Station,London Underground Ltd.,Oxford St,London,W1B 3AG"
940GZZLUPCO,Pimlico Underground Station,NaptanMetroStation,51.489097,-0.133761,victoria,yes,1,"Pimlico Station,London Underground Ltd.,Bessborough St,London,SW1V 2JA"
940GZZLUSKW,Stockwell Underground Station,NaptanMetroStation,51.472184,-0.122644,victoria,yes,2,"Stockwell Station,London Underground Ltd.,Clapham Rd,London,SW9 9AE"
940GZZLUSVS,Seven Sisters Underground Station,NaptanMetroStation,51.58333,-0.072584,victoria,yes,3,"Seven Sisters Underground Station,London Underground Ltd.,Seven Sisters Rd,London"
940GZZLUTMH,Tottenham Hale Underground Station,NaptanMetroStation,51.588108,-0.060241,victoria,yes,3,"Tottenham Hale Underground Station,London Underground Ltd.,Station Rd,London,N17 9LR"
940GZZLUVIC,Victoria Underground Station,NaptanMetroStation,51.496359,-0.143102,victoria,yes,1,"Victoria Underground Station,London Underground Ltd.,Victoria St,London,SW1E 5ND"
940GZZLUVXL,Vauxhall Underground Station,NaptanMetroStation,51.485743,-0.124204,victoria,yes,1+2,"Vauxhall Underground Station,London Underground Ltd.,Vauxhall Cross,London,SE1"
940GZZLUWRR,Warren Street Underground Station,NaptanMetroStation,51.524951,-0.138321,victoria,yes,1,"Warren Street Station,London Underground Ltd.,Tottenham Court Rd,London,NW1 3AA"
940GZZLUWWL,Walthamstow Central Underground Station,NaptanMetroStation,51.582965,-0.019885,victoria,yes,3,"Walthamstow Central Station BR Hoe St,London,E17 7LP"
940GZZLUBNK,Bank Underground Station,NaptanMetroStation,51.513356,-0.088899,waterloo-city,yes,1,"Bank/Monument Complex,London Underground Ltd.,Princes St,London,EC3V 3LA"
940GZZLUWLO,Waterloo Underground Station,NaptanMetroStation,51.503299,-0.11478,waterloo-city,yes,1,"Waterloo Underground Station,London Underground Ltd.,York Rd,London,SE1 7ND"
910GBRTWOOD,Brentwood Rail Station,NaptanRailStation,51.613605,0.299586,tfl-rail,yes,9,"Kings Road,Brentwood,CM14 4EW"
910GCHDWLHT,Chadwell Heath Rail Station,NaptanRailStation,51.568039,0.128958,tfl-rail,yes,5,"Station Road,Chadwell Heath,RM6 4BU"
910GFRSTGT,Forest Gate Rail Station,NaptanRailStation,51.549432,0.024353,tfl-rail,yes,3,"Woodgrange Road,Forest Gate,Greater London,E7 0NF"
910GGIDEAPK,Gidea Park Rail Station,NaptanRailStation,51.581904,0.205964,tfl-rail,yes,6,"Station Road,Gidea Park,Romford,RM2 6BX"
910GGODMAYS,Goodmayes Rail Station,NaptanRailStation,51.565579,0.110807,tfl-rail,yes,4,"Goodmayes Road,Goodmayes,Ilford,IG3 9UH"
910GHRLDWOD,Harold Wood Rail Station,NaptanRailStation,51.592766,0.233129,tfl-rail,yes,6,"Gubbins Lane,Harold Wood,RM3 0BL"
910GILFORD,Ilford Rail Station,NaptanRailStation,51.559118,0.06968,tfl-rail,yes,4,"Cranbrook Road,Ilford,IG1 4DU"
910GLIVST,London Liverpool Street Rail Station,NaptanRailStation,51.517991,-0.081426,tfl-rail,yes,1,"Liverpool Street Underground Station Central,London Underground Ltd.,Liverpool Street,London,EC2M 7PP"
910GMANRPK,Manor Park Rail Station,NaptanRailStation,51.552477,0.046342,tfl-rail,yes,3+4,"Station Road,Manor Park,Greater London,E12 5EP"
910GMRYLAND,Maryland Rail Station,NaptanRailStation,51.546081,0.005815,tfl-rail,yes,3,"Maryland Point,Leytonstone High Road,Stratford,E15 1SA"
910GROMFORD,Romford Rail Station,NaptanRailStation,51.574829,0.183237,tfl-rail,yes,6,"South Street,Romford,RM1 1SX"
910GSHENFLD,Shenfield Rail Station,NaptanRailStation,51.630877,0.329851,tfl-rail,yes,2/3,"Hutton Road,Shenfield,CM15 8JD"
910GSTFD,Stratford (London) Rail Station,NaptanRailStation,51.541895,-0.003397,tfl-rail,yes,4,"Stratford Station BR Station St,London,E15 1DE"
910GSVNKNGS,Seven Kings Rail Station,NaptanRailStation,51.564026,0.0971,tfl-rail,yes,,"High Road,Seven Kings,Ilford,IG3 8RE"
