stationNaptan,stationName,stopType,lat,lon,line,wifi,zone,address
940GZZLUALD,Aldgate Underground Station,NaptanMetroStation,51.514251,-0.075683,circle,yes,1,"Aldgate Station,London Underground Ltd.,Aldgate High St,London,EC3N 1AH"
940GZZLUBBN,Barbican Underground Station,NaptanMetroStation,51.52028,-0.097988,circle,yes,1,"Barbican Station,London Underground Ltd.,Aldersgate St,London,EC1A 4JA"
940GZZLUBKF,Blackfriars Underground Station,NaptanMetroStation,51.511586,-0.103654,circle,yes,1,"Blackfriars Station,London Underground Ltd.,Blackfriars Road,London,EC4R 2BB"
940GZZLUBST,Baker Street Underground Station,NaptanMetroStation,51.522888,-0.157127,circle,yes,1,"Baker Street Station Marylebone Rd,London,NW1"
940GZZLUBWT,Bayswater Underground Station,NaptanMetroStation,51.512289,-0.187935,circle,yes,1,"Bayswater Station,London Underground Ltd.,Queensway,London,W2 4RH"
940GZZLUCST,Cannon Street Underground Station,NaptanMetroStation,51.511515,-0.090426,circle,yes,1,"Cannon Street Underground Station,London Underground Ltd.,Cannon St,London,EC4N 6AP"
940GZZLUEMB,Embankment Underground Station,NaptanMetroStation,51.507062,-0.122662,circle,yes,1,"Embankment Station,London Underground Ltd.,Villiers St,London,WC2N 6NS"
940GZZLUERC,Edgware Road (Circle Line) Underground Station,NaptanMetroStation,51.519863,-0.167829,circle,yes,1,"Edgware Road Circle,London Underground Ltd.,Chapel Street,London,NW1 5DH"
940GZZLUESQ,Euston Square Underground Station,NaptanMetroStation,51.525609,-0.135825,circle,yes,1,"Euston Square Station,London Underground Ltd.,Euston Rd,London,NW1 2BN"
940GZZLUFCN,Farringdon Underground Station,NaptanMetroStation,51.520257,-0.104908,circle,no,1,"Farringdon Station,London Underground Ltd.,Cowcross St,London,EC1M 6BY"
940GZZLUGHK,Goldhawk Road Underground Station,NaptanMetroStation,51.502009,-0.226714,circle,yes,2,"Goldhawk Road Station,London Underground Ltd.,Goldhawk Rd,London,W12 8EG"
940GZZLUGPS,Great Portland Street Underground Station,NaptanMetroStation,51.523845,-0.144258,circle,yes,1,"Great Portland Street Station,London Underground Ltd.,Euston Rd,London,NW1"
940GZZLUGTR,Gloucester Road Underground Station,NaptanMetroStation,51.494321,-0.182655,circle,yes,1,"Gloucester Road Station,London Underground Ltd.,Gloucester Rd,London,SW7 4SF"
940GZZLUHSC,Hammersmith (H&C Line) Underground Station,NaptanMetroStation,51.493172,-0.224177,circle,no,2,"Hammersmith (H & C),London Underground Ltd.,Beadon Road,London,W6 7AA"
940GZZLUHSK,High Street Kensington Underground Station,NaptanMetroStation,51.50106,-0.19279,circle,yes,1,"High Street Kensington Station,London Underground Ltd.,Kensington High St,London,W8 5SA"
940GZZLUKSX,King's Cross St. Pancras Underground Station,NaptanMetroStation,51.530668,-0.12319,circle,yes,1,"King's Cross St. Pancras,London Underground Ltd.,Euston Road,London,N1 9AL"
940GZZLULAD,Ladbroke Grove Underground Station,NaptanMetroStation,51.517454,-0.210389,circle,yes,2,"Ladbroke Grove Station,London Underground Ltd.,Ladbroke Grove,London,W10 6HJ"
940GZZLULRD,Latimer Road Underground Station,NaptanMetroStation,51.513394,-0.217797,circle,yes,2,"Latimer Road Station,London Underground Ltd.,Bramley Rd,London,W10 6SZ"
940GZZLULVT,Liverpool Street Underground Station,NaptanMetroStation,51.517377,-0.083176,circle,yes,1,"Liverpool Street Underground Station Central,London Underground Ltd.,Liverpool Street,London,EC2M 7PP"
940GZZLUMGT,Moorgate Underground Station,NaptanMetroStation,51.51818,-0.088317,circle,no,1,"Moorgate Station,London Underground Ltd.,Moorfields,London,EC2Y 9AE"
940GZZLUMMT,Monument Underground Station,NaptanMetroStation,51.510705,-0.085964,circle,yes,1,"Monument Station,London Underground Ltd.,King William St,London,EC4R 9AA"
940GZZLUMSH,Mansion House Underground Station,NaptanMetroStation,51.512122,-0.094004,circle,yes,1,"Mansion House Station,London Underground Ltd.,38 Cannon St,London,EC4N 6JD"
940GZZLUNHG,Notting Hill Gate Underground Station,NaptanMetroStation,51.509132,-0.196102,circle,yes,1+2,"Notting Hill Gate Station,London Underground Ltd.,Notting Hill Gate,London,W11 3HT"
940GZZLUPAC,Paddington Underground Station,NaptanMetroStation,51.516586,-0.175686,circle,yes,1,"Paddington Underground Stations,London Underground Ltd.,Praed St,London,W2"
940GZZLUPAH,Paddington (H&C Line)-Underground,NaptanMetroStation,51.518192,-0.178303,circle,yes,1,"Royal Oak Station,London Underground Ltd.,Lord Hills Bridge,London,W2 6ET"
940GZZLURYO,Royal Oak Underground Station,NaptanMetroStation,51.519118,-0.188745,circle,yes,2,"Shepherd's Bush Market,London Underground Ltd.,Uxbridge Road,London,W12 7JD"
940GZZLUSBM,Shepherd's Bush Market Underground Station,NaptanMetroStation,51.505583,-0.226373,circle,yes,2,"St. James's Park,London Underground Ltd.,Petty France,London,SW1H 0BD"
940GZZLUSJP,St. James's Park Underground Station,NaptanMetroStation,51.499548,-0.133604,circle,yes,1,"South Kensington Station,London Underground Ltd.,Pelham St,London,SW7 2NB"
940GZZLUSKS,South Kensington Underground Station,NaptanMetroStation,51.494098,-0.174135,circle,yes,1,"Sloane Square Station,London Underground Ltd.,Sloane Square,London,SW1W 8BB"
940GZZLUSSQ,Sloane Square Underground Station,NaptanMetroStation,51.492274,-0.156374,circle,yes,1,"Temple Station,London Underground Ltd.,Victoria Embankment,London,WC2R 2PH"
940GZZLUTMP,Temple Underground Station,NaptanMetroStation,51.51101,-0.114256,circle,yes,1,"Tower Hill Station,London Underground Ltd.,Trinity Square,London,EC3N 4DJ"
940GZZLUTWH,Tower Hill Underground Station,NaptanMetroStation,51.509975,-0.07654,circle,yes,1,"Victoria Underground Station,London Underground Ltd.,Victoria St,London,SW1E 5ND"
940GZZLUVIC,Victoria Underground Station,NaptanMetroStation,51.496363,-0.143098,circle,yes,1,"Wood Lane Station,London Underground Ltd.,Wood Lane,London,"
940GZZLUWLA,Wood Lane Underground Station,NaptanMetroStation,51.509674,-0.224528,circle,yes,2,"Westminster Station,London Underground Ltd.,Bridge St,London,SW1A 2JR"
940GZZLUWSM,Westminster Underground Station,NaptanMetroStation,51.501324,-0.124857,circle,yes,1,"Westbourne Park Station,London Underground Ltd.,Western Rd,London,W11 1AB"
940GZZLUWSP,Westbourne Park Underground Station,NaptanMetroStation,51.521115,-0.201063,circle,,2,
